[{"OBJECT_NAME":"STARLINK-34728","OBJECT_ID":"2025-194X","EPOCH":"2026-03-09T13:15:59.838624","MEAN_MOTION":15.05662824,"ECCENTRICITY":0.00016644,"INCLINATION":97.6017,"RA_OF_ASC_NODE":284.2056,"ARG_OF_PERICENTER":91.3924,"MEAN_ANOMALY":268.7493,"EPHEMERIS_TYPE":0,"CLASSIFICATION_TYPE":"U","NORAD_CAT_ID":65455,"ELEMENT_SET_NO":999,"REV_AT_EPOCH":2962,"BSTAR":0.00039886181,"MEAN_MOTION_DOT":5.701e-5,"MEAN_MOTION_DDOT":0},{"OBJECT_NAME":"AISAT","OBJECT_ID":"2014-034B","EPOCH":"2026-03-09T16:29:04.722144","MEAN_MOTION":15.06703825,"ECCENTRICITY":0.00089151,"INCLINATION":98.2441,"RA_OF_ASC_NODE":333.9816,"ARG_OF_PERICENTER":189.0234,"MEAN_ANOMALY":171.0832,"EPHEMERIS_TYPE":0,"CLASSIFICATION_TYPE":"U","NORAD_CAT_ID":40054,"ELEMENT_SET_NO":999,"REV_AT_EPOCH":63221,"BSTAR":0.00094770343,"MEAN_MOTION_DOT":0.00014038,"MEAN_MOTION_DDOT":0}]
